{
    "links": {
        "self": "http://www.neowsapp.com/rest/v1/neo/3883090?api_key=iIulBulltgU6a56xZRHN4H3l9WmuAYTsLGpBGhQ2"
    },
    "id": "3883090",
    "neo_reference_id": "3883090",
    "name": "(2019 UQ7)",
    "designation": "2019 UQ7",
    "nasa_jpl_url": "http://ssd.jpl.nasa.gov/sbdb.cgi?sstr=3883090",
    "absolute_magnitude_h": 22.3,
    "estimated_diameter": {
        "kilometers": {
            "estimated_diameter_min": 0.0921626549,
            "estimated_diameter_max": 0.2060819612
        },
        "meters": {
            "estimated_diameter_min": 92.1626548503,
            "estimated_diameter_max": 206.0819612321
        },
        "miles": {
            "estimated_diameter_min": 0.057267201,
            "estimated_diameter_max": 0.1280533543
        },
        "feet": {
            "estimated_diameter_min": 302.370924539,
            "estimated_diameter_max": 676.1219416887
        }
    },
    "is_potentially_hazardous_asteroid": false,
    "close_approach_data": [
        {
            "close_approach_date": "2019-10-23",
            "close_approach_date_full": "2019-Oct-23 12:39",
            "epoch_date_close_approach": 1571834340000,
            "relative_velocity": {
                "kilometers_per_second": "19.5228432479",
                "kilometers_per_hour": "70282.2356923694",
                "miles_per_hour": "43670.6480611837"
            },
            "miss_distance": {
                "astronomical": "0.0623187673",
                "lunar": "24.2420004797",
                "kilometers": "9322754.849105651",
                "miles": "5792891.2432979438"
            },
            "orbiting_body": "Earth"
        }
    ],
    "orbital_data": {
        "orbit_id": "6",
        "orbit_determination_date": "2020-09-11 07:45:30",
        "first_observation_date": "2019-10-24",
        "last_observation_date": "2019-10-31",
        "data_arc_in_days": 7,
        "observations_used": 41,
        "orbit_uncertainty": "9",
        "minimum_orbit_intersection": ".00676297",
        "jupiter_tisserand_invariant": "2.833",
        "epoch_osculation": "2458782.5",
        "eccentricity": ".6627437103407319",
        "semi_major_axis": "2.774005788378795",
        "inclination": "28.88337490654369",
        "ascending_node_longitude": "33.82814882337166",
        "orbital_period": "1687.560965600994",
        "perihelion_distance": ".9355508996819654",
        "perihelion_argument": "330.5287117935195",
        "aphelion_distance": "4.612460677075624",
        "perihelion_time": "2458758.971316832581",
        "mean_anomaly": "5.019271074010821",
        "mean_motion": ".2133256263555448",
        "equinox": "J2000",
        "orbit_class": {
            "orbit_class_type": "APO",
            "orbit_class_description": "Near-Earth asteroid orbits which cross the Earth’s orbit similar to that of 1862 Apollo",
            "orbit_class_range": "a (semi-major axis) > 1.0 AU; q (perihelion) < 1.017 AU"
        }
    },
    "is_sentry_object": false
}